Name,Phone,Address,State
John Doe,555-1234,123 Main St,California
Jane Smith,555-5678,456 Elm St,New York
Michael Johnson,555-9876,789 Oak Ave,Texas
Emily Davis,555-4321,321 Pine Rd,Florida
Sarah Wilson,555-8765,654 Maple Ln,California
Robert Anderson,555-2345,234 Cedar Ave,Texas
Jennifer Brown,555-6789,567 Birch St,New York
William Taylor,555-8765,876 Oak St,Florida
Olivia Miller,555-3456,345 Pine Ave,California
David Davis,555-7890,678 Elm Ln,Texas
Amy White,555-2341,912 Maple Rd,Florida
Daniel Harris,555-5673,765 Cedar St,New York
Jessica Thompson,555-9087,432 Oak Ave,Texas
Andrew Martinez,555-3456,219 Pine Rd,California
Elizabeth Clark,555-7812,654 Elm St,Florida
Christopher Lee,555-9876,123 Maple Ln,California
Samantha Lewis,555-6543,987 Cedar Ave,Texas
Matthew Turner,555-3210,456 Oak St,Florida
Lauren Walker,555-7654,789 Pine Rd,New York
James Taylor,555-4321,321 Elm St,California
Emily Adams,555-8765,654 Maple Ave,Texas
Sophia Hill,555-7890,789 Cedar Ln,Florida
Jacob Wilson,555-2341,432 Pine St,California
Mia Roberts,555-5673,765 Elm Rd,New York
Logan Cooper,555-9087,876 Oak Ave,Texas
Oliver Mitchell,555-3456,219 Pine Rd,Florida
Evelyn Harris,555-7812,654 Elm St,California
Alexander Wright,555-9876,123 Maple Ln,Texas
Harper Anderson,555-6543,987 Cedar Ave,Florida
Charlotte Turner,555-3210,456 Oak St,California